FENGYUN 1C DEB          
1 33656U 99025DER 17346.34357821  .00000132  00000-0  81244-4 0  9991
2 33656  98.7211  19.8808 0095331 190.7674 236.0663 14.18349454530649
